0 FENGYUN 1C DEB
1 30716U 99025ASA 18263.77518799 +.00000713 +00000-0 +31375-3 0  9998
2 30716 098.8431 339.9800 0052623 307.9439 179.5373 14.25949114599229
0 FENGYUN 1C DEB
1 30720U 99025ASE 18263.77498788 +.00000203 +00000-0 +11393-3 0  9990
2 30720 098.8646 000.7404 0034359 009.1019 142.5912 14.20854635599357
0 FENGYUN 1C DEB
1 30721U 99025ASF 18263.65173503 +.00000770 +00000-0 +32167-3 0  9994
2 30721 098.8018 318.1401 0057632 241.8823 240.9293 14.28210251599208
0 FENGYUN 1C DEB
1 30722U 99025ASG 18263.36178832 +.00002326 +00000-0 +68969-3 0  9991
2 30722 098.3066 210.0077 0311687 258.5540 098.0485 14.19715606586799
0 FENGYUN 1C DEB
1 30723U 99025ASH 18263.53726434 +.00000639 +00000-0 +32354-3 0  9992
2 30723 098.9876 270.1694 0016588 332.5568 154.3219 14.19687883597778
0 FENGYUN 1C DEB
1 30724U 99025ASJ 18263.82731715 +.00000139 +00000-0 +68143-4 0  9994
2 30724 099.2783 224.5259 0101517 332.3718 056.2607 14.31188870606512
0 FENGYUN 1C DEB
1 30725U 99025ASK 18263.69215698 +.00000665 +00000-0 +42292-3 0  9997
2 30725 099.1926 272.5247 0101652 200.2942 224.1999 14.04836458591934
0 FENGYUN 1C DEB
1 30726U 99025ASL 18263.32881972 +.00000238 +00000-0 +18488-3 0  9998
2 30726 099.1166 206.6681 0085937 317.8776 194.6569 14.00553514589608
0 FENGYUN 1C DEB
1 30730U 99025ASQ 18263.76375615 +.00000329 +00000-0 +18271-3 0  9994
2 30730 098.8758 303.2269 0090933 069.2616 355.0135 14.15722556595794
0 FENGYUN 1C DEB
1 30731U 99025ASR 18263.66575542 +.00000790 +00000-0 +39163-3 0  9990
2 30731 098.9677 256.4203 0019393 320.4302 100.9189 14.20084034597378
0 FENGYUN 1C DEB
1 30732U 99025ASS 18263.04885692 +.00000025 +00000-0 +43690-4 0  9995
2 30732 099.0950 295.3520 0129500 341.2676 077.5778 14.01175226591893
0 FENGYUN 1C DEB
1 30733U 99025AST 18263.42760139 +.00001575 +00000-0 +28219-3 0  9996
2 30733 099.0584 248.1876 0065099 220.4395 139.1958 14.67152280611777
0 FENGYUN 1C DEB
1 30734U 99025ASU 18263.70076840 +.00003783 +00000-0 +27569-3 0  9997
2 30734 098.9702 327.5916 0058410 303.5722 055.9931 15.03179909617434
0 FENGYUN 1C DEB
1 30735U 99025ASV 18263.65516188 +.00000471 +00000-0 +28017-3 0  9996
2 30735 098.9506 320.0764 0073139 190.9267 301.2338 14.10891218594245
0 FENGYUN 1C DEB
1 30737U 99025ASX 18263.66298122 +.00000064 +00000-0 +54469-4 0  9993
2 30737 098.6805 308.0857 0025541 159.0324 325.5003 14.15292610596672
0 FENGYUN 1C DEB
1 30738U 99025ASY 18263.67149539 +.00000996 +00000-0 +45083-3 0  9997
2 30738 099.3773 150.0672 0057399 211.6140 148.1584 14.23665627596867
0 FENGYUN 1C DEB
1 30739U 99025ASZ 18263.60753230 +.00000106 +00000-0 +78266-4 0  9993
2 30739 098.7587 296.6628 0104593 279.0616 210.1693 14.11600268595910
0 FENGYUN 1C DEB
1 30741U 99025ATB 18263.63161757 +.00000007 +00000-0 +27898-4 0  9991
2 30741 098.9094 290.6419 0007316 062.1219 063.5295 14.11862356595540
0 FENGYUN 1C DEB
1 30742U 99025ATC 18263.71145785 +.00000250 +00000-0 +19181-3 0  9999
2 30742 099.0676 311.9225 0082129 015.2128 110.6071 14.00704135590587
0 FENGYUN 1C DEB
1 30744U 99025ATE 18263.67152663 +.00000866 +00000-0 +34896-3 0  9992
2 30744 098.8267 307.1510 0019016 226.3851 249.3405 14.30581819600600
0 FENGYUN 1C DEB
1 30745U 99025ATF 18263.67906167 +.00000955 +00000-0 +36360-3 0  9996
2 30745 099.2409 167.7408 0031002 007.2942 056.5200 14.33230750600302
0 FENGYUN 1C DEB
1 30746U 99025ATG 18263.77181297 +.00000329 +00000-0 +16920-3 0  9992
2 30746 098.8638 002.8722 0048641 351.1902 132.5911 14.21450357598892
0 FENGYUN 1C DEB
1 30749U 99025ATK 18263.60329036 -.00000199 +00000-0 -10473-3 0  9996
2 30749 099.1973 286.6432 0056960 307.5519 052.0478 13.99050838590433
0 FENGYUN 1C DEB
1 30750U 99025ATL 18263.69104389 +.00000592 +00000-0 +33947-3 0  9995
2 30750 099.0778 267.3479 0051036 043.0446 018.4220 14.12770552593896
0 FENGYUN 1C DEB
1 30751U 99025ATM 18263.62177410 +.00000219 +00000-0 +16241-3 0  9998
2 30751 099.0490 309.3590 0060955 296.7497 188.5445 14.04735789591296
0 FENGYUN 1C DEB
1 30752U 99025ATN 18263.72775531 +.00000991 +00000-0 +36924-3 0  9995
2 30752 098.8811 342.7662 0031966 203.3957 286.5584 14.34068334599971
0 FENGYUN 1C DEB
1 30753U 99025ATP 18263.62958847 -.00000037 +00000-0 +49515-5 0  9992
2 30753 099.0316 299.5117 0061614 197.1246 162.7843 14.05275457592142
0 FENGYUN 1C DEB
1 30755U 99025ATR 18263.57627309 +.00000201 +00000-0 +73583-4 0  9997
2 30755 098.4277 308.5324 0171126 279.7611 243.2418 14.35768885605094
0 FENGYUN 1C DEB
1 30756U 99025ATS 18263.73584279 +.00000758 +00000-0 +46672-3 0  9999
2 30756 099.1562 267.9831 0083445 157.5110 259.6178 14.06971188591946
0 FENGYUN 1C DEB
1 30758U 99025ATU 18263.75356080 +.00000580 +00000-0 +36583-3 0  9993
2 30758 099.0101 346.2481 0045613 222.2957 259.7823 14.07784896592782
0 FENGYUN 1C DEB
1 30759U 99025ATV 18263.59295485 +.00000681 +00000-0 +30671-3 0  9991
2 30759 099.2694 149.2143 0013468 234.4480 198.0226 14.25871619598460
0 FENGYUN 1C DEB
1 30760U 99025ATW 18263.61039277 -.00000204 +00000-0 -10122-3 0  9993
2 30760 098.9493 292.1225 0054666 157.5347 202.8231 14.03392860591775
0 FENGYUN 1C DEB
1 30761U 99025ATX 18263.65174610 +.00000261 +00000-0 +12284-3 0  9991
2 30761 099.0677 057.5350 0096201 033.0025 327.7108 14.26133078600451
0 FENGYUN 1C DEB
1 30763U 99025ATZ 18263.82519904 +.00001218 +00000-0 +59797-3 0  9994
2 30763 098.8839 238.7899 0041043 028.0622 045.7747 14.19189516594438
0 FENGYUN 1C DEB
1 30764U 99025AUA 18262.98179821 +.00000553 +00000-0 +64610-4 0  9993
2 30764 098.8256 273.6309 0187953 003.4876 026.2135 14.78457204619569
0 FENGYUN 1C DEB
1 30765U 99025AUB 18263.59231310 +.00000214 +00000-0 +14790-3 0  9991
2 30765 099.0565 294.3305 0075021 085.4503 041.5953 14.08061036597459
0 FENGYUN 1C DEB
1 30770U 99025AUG 18263.71451372 +.00000074 +00000-0 +63477-4 0  9994
2 30770 098.8638 293.4371 0012908 241.7175 237.2651 14.12883669596067
0 FENGYUN 1C DEB
1 30771U 99025AUH 18263.75333731 +.00000860 +00000-0 +45251-3 0  9999
2 30771 098.8059 188.1240 0034844 347.9444 012.0893 14.16393323595187
0 MIDSTAR 1
1 30773U 07006B   18263.73996741 +.00001249 +00000-0 +30937-4 0  9991
2 30773 046.0667 045.5543 0003871 353.3696 006.7160 15.47847557646235
0 OE (NEXTSAT)
1 30774U 07006C   18263.65041905 +.00001257 +00000-0 +38262-4 0  9994
2 30774 046.0046 325.1797 0006939 334.0917 025.9638 15.41207193642672
0 STPSAT 1
1 30775U 07006D   18263.72413171 +.00001204 +00000-0 +47188-4 0  9990
2 30775 035.4296 119.3812 0002504 140.8800 219.2105 15.26358301637932
0 FALCONSAT 3
1 30776U 07006E   18263.70155328 +.00002256 +00000-0 +66544-4 0  9991
2 30776 035.4368 018.5250 0002807 195.9399 164.1239 15.34921150639002
0 CFESAT
1 30777U 07006F   18263.74768365 +.00001981 +00000-0 +60799-4 0  9997
2 30777 035.4266 046.5259 0005700 198.6333 161.4184 15.33753324638703
0 CBERS 1 DEB
1 30783U 99057NS  18263.62424244 +.00000092 +00000-0 +46906-4 0  9999
2 30783 098.1848 128.3247 0051910 079.1266 338.8003 14.33581291604490
0 CBERS 1 DEB
1 30789U 99057NY  18263.82187448 +.00000382 +00000-0 +12770-3 0  9992
2 30789 098.4978 214.2428 0007597 347.9132 073.6983 14.42837322607582
0 CBERS 1 DEB
1 30791U 99057PA  18263.79838953 +.00000467 +00000-0 +14324-3 0  9996
2 30791 098.4896 224.1552 0004904 329.7907 103.1843 14.46178495608341
0 CBERS 1 DEB
1 30792U 99057PB  18263.76791394 +.00000012 +00000-0 +19539-4 0  9991
2 30792 098.5341 202.4940 0008100 067.2991 349.4747 14.35505665605859
0 INSAT 4B
1 30793U 07007A   18263.76324851 -.00000371 +00000-0 +00000-0 0  9994
2 30793 000.0201 244.3609 0004271 283.8350 217.4726 01.00272952013863
0 SKYNET 5A
1 30794U 07007B   18263.76002080 -.00000288 +00000-0 +00000-0 0  9999
2 30794 000.0681 358.7320 0003265 174.8941 194.7412 01.00273896042312
0 ARIANE 5 R/B
1 30795U 07007C   18263.53177883 +.00002771 +00000-0 +65117-3 0  9990
2 30795 004.0535 272.0110 7112844 250.4426 024.5932 02.50141786100231
0 THEMIS D
1 30797U 07004D   18262.20754174 -.00000835 +00000-0 +00000-0 0  9993
2 30797 005.0666 096.4768 8539498 283.0262 004.1029 00.71879598041410
0 THEMIS E
1 30798U 07004E   18262.22842917 -.00000722 +00000-0 +00000-0 0  9994
2 30798 005.2549 122.2358 8370018 256.2526 009.7918 00.81321544041380
0 FENGYUN 1C DEB
1 30800U 99025AUJ 18263.79284163 +.00002258 +00000-0 +43814-3 0  9996
2 30800 099.0070 188.9117 0050671 013.8500 048.2466 14.63576363607163
0 FENGYUN 1C DEB
1 30802U 99025AUL 18263.77343521 +.00000589 +00000-0 +32051-3 0  9996
2 30802 099.0091 292.7928 0024616 047.8915 012.5159 14.16026893597267
0 FENGYUN 1C DEB
1 30803U 99025AUM 18263.77579142 +.00000106 +00000-0 +97627-4 0  9993
2 30803 099.1597 219.7450 0115372 286.7934 136.4977 13.99975103589727
0 FENGYUN 1C DEB
1 30804U 99025AUN 18263.48914529 +.00000092 +00000-0 +33144-4 0  9992
2 30804 098.8874 147.6959 0208684 191.1512 295.0269 14.45646117612663
0 FENGYUN 1C DEB
1 30805U 99025AUP 18263.71783015 +.00000216 +00000-0 +17684-3 0  9991
2 30805 099.0569 329.7355 0069272 026.2446 095.7038 13.98777863590195
0 FENGYUN 1C DEB
1 30806U 99025AUQ 18263.34657395 +.00000264 +00000-0 +28224-3 0  9997
2 30806 099.1016 038.2453 0277182 182.9138 206.7979 13.66405682576020
0 FENGYUN 1C DEB
1 30809U 99025AUT 18263.39609705 +.00000508 +00000-0 +28866-3 0  9990
2 30809 098.9320 325.2593 0064027 152.6115 207.8456 14.13366009596782
0 FENGYUN 1C DEB
1 30810U 99025AUU 18263.60154078 +.00001852 +00000-0 +15089-2 0  9999
2 30810 098.6991 234.8027 0241682 052.8642 309.4326 13.78244882578219
0 FENGYUN 1C DEB
1 30811U 99025AUV 18263.70372576 +.00000477 +00000-0 +57057-3 0  9990
2 30811 098.8184 183.4584 0300049 033.0133 328.9352 13.53846799570778
